{"fetched_at":"2026-07-09T08:01:33.331Z","source":"https://celestrak.org/NORAD/elements/gp.php?NAME=STRIX&FORMAT=JSON","constellation":"synspective","records":[{"OBJECT_NAME":"STRIX-1","OBJECT_ID":"2022-113A","EPOCH":"2026-07-08T22:44:48.980832","CLASSIFICATION_TYPE":"U","MEAN_MOTION":15.4079879,"ECCENTRICITY":0.00052096,"INCLINATION":97.4484,"RA_OF_ASC_NODE":252.3723,"ARG_OF_PERICENTER":148.3919,"MEAN_ANOMALY":211.7641,"EPHEMERIS_TYPE":0,"NORAD_CAT_ID":53815,"ELEMENT_SET_NO":999,"REV_AT_EPOCH":21079,"BSTAR":0.0003935297,"MEAN_MOTION_DOT":0.00016054,"MEAN_MOTION_DDOT":0},{"OBJECT_NAME":"STRIX-3","OBJECT_ID":"2024-047A","EPOCH":"2026-07-08T23:23:53.558880","CLASSIFICATION_TYPE":"U","MEAN_MOTION":15.19742571,"ECCENTRICITY":0.00127512,"INCLINATION":97.6629,"RA_OF_ASC_NODE":165.9772,"ARG_OF_PERICENTER":357.2756,"MEAN_ANOMALY":2.8406,"EPHEMERIS_TYPE":0,"NORAD_CAT_ID":59224,"ELEMENT_SET_NO":999,"REV_AT_EPOCH":12805,"BSTAR":0.00025528768,"MEAN_MOTION_DOT":0.00005397,"MEAN_MOTION_DDOT":0},{"OBJECT_NAME":"STRIX-4","OBJECT_ID":"2024-137A","EPOCH":"2026-07-08T23:35:35.202912","CLASSIFICATION_TYPE":"U","MEAN_MOTION":15.33179135,"ECCENTRICITY":0.00157421,"INCLINATION":43.0142,"RA_OF_ASC_NODE":160.945,"ARG_OF_PERICENTER":87.874,"MEAN_ANOMALY":272.3916,"EPHEMERIS_TYPE":0,"NORAD_CAT_ID":60352,"ELEMENT_SET_NO":999,"REV_AT_EPOCH":10736,"BSTAR":0.00030782706,"MEAN_MOTION_DOT":0.00009845,"MEAN_MOTION_DDOT":0},{"OBJECT_NAME":"STRIX-2","OBJECT_ID":"2024-248A","EPOCH":"2026-07-08T22:55:42.373056","CLASSIFICATION_TYPE":"U","MEAN_MOTION":15.09150417,"ECCENTRICITY":0.00136054,"INCLINATION":97.6292,"RA_OF_ASC_NODE":145.4728,"ARG_OF_PERICENTER":260.0144,"MEAN_ANOMALY":99.9549,"EPHEMERIS_TYPE":0,"NORAD_CAT_ID":62406,"ELEMENT_SET_NO":999,"REV_AT_EPOCH":8487,"BSTAR":0.0002750085,"MEAN_MOTION_DOT":0.0000431,"MEAN_MOTION_DDOT":0},{"OBJECT_NAME":"STRIX-5","OBJECT_ID":"2025-229A","EPOCH":"2026-07-08T22:39:18.529344","CLASSIFICATION_TYPE":"U","MEAN_MOTION":15.04562325,"ECCENTRICITY":0.00371665,"INCLINATION":41.9264,"RA_OF_ASC_NODE":166.7382,"ARG_OF_PERICENTER":197.4091,"MEAN_ANOMALY":162.5462,"EPHEMERIS_TYPE":0,"NORAD_CAT_ID":65971,"ELEMENT_SET_NO":999,"REV_AT_EPOCH":4025,"BSTAR":0.00014218956,"MEAN_MOTION_DOT":0.00001861,"MEAN_MOTION_DDOT":0},{"OBJECT_NAME":"STRIX-6","OBJECT_ID":"2026-056A","EPOCH":"2026-07-08T10:36:46.104192","CLASSIFICATION_TYPE":"U","MEAN_MOTION":15.00308954,"ECCENTRICITY":0.00165582,"INCLINATION":50.282,"RA_OF_ASC_NODE":249.312,"ARG_OF_PERICENTER":325.3377,"MEAN_ANOMALY":34.6492,"EPHEMERIS_TYPE":0,"NORAD_CAT_ID":68291,"ELEMENT_SET_NO":999,"REV_AT_EPOCH":1646,"BSTAR":0.00014642502,"MEAN_MOTION_DOT":0.00001594,"MEAN_MOTION_DDOT":0},{"OBJECT_NAME":"STRIX-7","OBJECT_ID":"2026-112A","EPOCH":"2026-07-08T22:16:32.322432","CLASSIFICATION_TYPE":"U","MEAN_MOTION":15.01578195,"ECCENTRICITY":0.00239916,"INCLINATION":44.9076,"RA_OF_ASC_NODE":78.2504,"ARG_OF_PERICENTER":173.0885,"MEAN_ANOMALY":187.0322,"EPHEMERIS_TYPE":0,"NORAD_CAT_ID":69177,"ELEMENT_SET_NO":999,"REV_AT_EPOCH":714,"BSTAR":0.00021147998,"MEAN_MOTION_DOT":0.00002565,"MEAN_MOTION_DDOT":0},{"OBJECT_NAME":"STRIX-8","OBJECT_ID":"2026-146A","EPOCH":"2026-07-08T21:52:58.006272","CLASSIFICATION_TYPE":"U","MEAN_MOTION":15.04398794,"ECCENTRICITY":0.00082016,"INCLINATION":41.9901,"RA_OF_ASC_NODE":47.8997,"ARG_OF_PERICENTER":341.2664,"MEAN_ANOMALY":18.786,"EPHEMERIS_TYPE":0,"NORAD_CAT_ID":69701,"ELEMENT_SET_NO":999,"REV_AT_EPOCH":183,"BSTAR":0.00021529172,"MEAN_MOTION_DOT":0.00002869,"MEAN_MOTION_DDOT":0}]}
